[{"OBJECT_NAME":"YAOGAN-39 03C","OBJECT_ID":"2023-152E","EPOCH":"2026-03-09T18:54:59.298048","MEAN_MOTION":15.17057677,"ECCENTRICITY":0.00104072,"INCLINATION":34.9896,"RA_OF_ASC_NODE":195.9796,"ARG_OF_PERICENTER":330.7235,"MEAN_ANOMALY":29.2893,"EPHEMERIS_TYPE":0,"CLASSIFICATION_TYPE":"U","NORAD_CAT_ID":57990,"ELEMENT_SET_NO":999,"REV_AT_EPOCH":13505,"BSTAR":0.00036411545,"MEAN_MOTION_DOT":7.356e-5,"MEAN_MOTION_DDOT":0},{"OBJECT_NAME":"FALCON 9 DEB","OBJECT_ID":"2021-041BH","EPOCH":"2026-03-09T15:22:42.897792","MEAN_MOTION":15.1290094,"ECCENTRICITY":0.0010029,"INCLINATION":53.0279,"RA_OF_ASC_NODE":186.1166,"ARG_OF_PERICENTER":187.1036,"MEAN_ANOMALY":172.9815,"EPHEMERIS_TYPE":0,"CLASSIFICATION_TYPE":"U","NORAD_CAT_ID":48608,"ELEMENT_SET_NO":999,"REV_AT_EPOCH":26435,"BSTAR":0.00033747,"MEAN_MOTION_DOT":5.718e-5,"MEAN_MOTION_DDOT":0}]
